{
    "links": {
        "self": "http://www.neowsapp.com/rest/v1/neo/3402132?api_key=iIulBulltgU6a56xZRHN4H3l9WmuAYTsLGpBGhQ2"
    },
    "id": "3402132",
    "neo_reference_id": "3402132",
    "name": "(2008 CD6)",
    "designation": "2008 CD6",
    "nasa_jpl_url": "http://ssd.jpl.nasa.gov/sbdb.cgi?sstr=3402132",
    "absolute_magnitude_h": 23.7,
    "estimated_diameter": {
        "kilometers": {
            "estimated_diameter_min": 0.0483676488,
            "estimated_diameter_max": 0.1081533507
        },
        "meters": {
            "estimated_diameter_min": 48.3676488219,
            "estimated_diameter_max": 108.1533506775
        },
        "miles": {
            "estimated_diameter_min": 0.0300542543,
            "estimated_diameter_max": 0.0672033557
        },
        "feet": {
            "estimated_diameter_min": 158.6865169607,
            "estimated_diameter_max": 354.8338390368
        }
    },
    "is_potentially_hazardous_asteroid": false,
    "close_approach_data": [
        {
            "close_approach_date": "2008-01-11",
            "close_approach_date_full": "2008-Jan-11 03:28",
            "epoch_date_close_approach": 1200022080000,
            "relative_velocity": {
                "kilometers_per_second": "13.0044429337",
                "kilometers_per_hour": "46815.9945611533",
                "miles_per_hour": "29089.63839829"
            },
            "miss_distance": {
                "astronomical": "0.0409930897",
                "lunar": "15.9463118933",
                "kilometers": "6132478.903838939",
                "miles": "3810545.6934937982"
            },
            "orbiting_body": "Earth"
        }
    ],
    "orbital_data": {
        "orbit_id": "8",
        "orbit_determination_date": "2017-04-06 09:04:30",
        "first_observation_date": "2008-02-07",
        "last_observation_date": "2008-02-11",
        "data_arc_in_days": 4,
        "observations_used": 20,
        "orbit_uncertainty": "9",
        "minimum_orbit_intersection": ".00233219",
        "jupiter_tisserand_invariant": "3.592",
        "epoch_osculation": "2454505.5",
        "eccentricity": ".5999303368256662",
        "semi_major_axis": "2.001470106473681",
        "inclination": "1.071904692191648",
        "ascending_node_longitude": "178.614953855102",
        "orbital_period": "1034.241806047526",
        "perihelion_distance": ".8007274713504237",
        "perihelion_argument": "235.9030362029384",
        "aphelion_distance": "3.202212741596939",
        "perihelion_time": "2454438.727620519817",
        "mean_anomaly": "23.24220165178787",
        "mean_motion": ".3480810753297445",
        "equinox": "J2000",
        "orbit_class": {
            "orbit_class_type": "APO",
            "orbit_class_description": "Near-Earth asteroid orbits which cross the Earth’s orbit similar to that of 1862 Apollo",
            "orbit_class_range": "a (semi-major axis) > 1.0 AU; q (perihelion) < 1.017 AU"
        }
    },
    "is_sentry_object": false
}